{"type": "FeatureCollection", "features": [ {"type": "Feature", "properties": {"norad_id": 39778, "name": "IRIDIUM 33 DEB", "group": "iridium-33-debris", "lat": 63.86363754670539, "lon": 50.024200128974265, "alt_km": 700.5045412626332, "timestamp": "2025-12-14T03:55:53.173326+00:00", "meta": {"OBJECT_NAME": "IRIDIUM 33 DEB", "OBJECT_ID": "1997-051AAK", "EPOCH": "2025-12-12T10:21:13.925952", "MEAN_MOTION": 14.54260993, "ECCENTRICITY": 0.00080257, "INCLINATION": 86.3781, "RA_OF_ASC_NODE": 43.3592, "ARG_OF_PERICENTER": 42.6876, "MEAN_ANOMALY": 317.4953, "EPHEMERIS_TYPE": 0, "CLASSIFICATION_TYPE": "U", "NORAD_CAT_ID": 39778, "ELEMENT_SET_NO": 999, "REV_AT_EPOCH": 60688, "BSTAR": 0.001394589, "MEAN_MOTION_DOT": 5.932e-05, "MEAN_MOTION_DDOT": 0}, "tle": {"line1": "1 39778U 97051AAK 25346.43141118  .00005932  00000+0  13946-2 0  9992", "line2": "2 39778  86.3781  43.3592 0008025  42.6876 317.4953 14.54260993606886"}}, "geometry": {"type": "Point", "coordinates": [50.024200128974265, 63.86363754670539]}}, {"type": "Feature", "properties": {"norad_id": 39781, "name": "IRIDIUM 33 DEB", "group": "iridium-33-debris", "lat": 9.61902402605382, "lon": -101.99159155884767, "alt_km": 846.9837862361846, "timestamp": "2025-12-14T03:55:53.173336+00:00", "meta": {"OBJECT_NAME": "IRIDIUM 33 DEB", "OBJECT_ID": "1997-051AAN", "EPOCH": "2025-12-12T01:28:05.155392", "MEAN_MOTION": 14.2060455, "ECCENTRICITY": 0.01772895, "INCLINATION": 86.3691, "RA_OF_ASC_NODE": 258.2585, "ARG_OF_PERICENTER": 275.4265, "MEAN_ANOMALY": 145.4796, "EPHEMERIS_TYPE": 0, "CLASSIFICATION_TYPE": "U", "NORAD_CAT_ID": 39781, "ELEMENT_SET_NO": 999, "REV_AT_EPOCH": 8097, "BSTAR": 0.0073586238, "MEAN_MOTION_DOT": 0.00018593, "MEAN_MOTION_DDOT": 0}, "tle": {"line1": "1 39781U 97051AAN 25346.06117078  .00018593  00000+0  73586-2 0  9996", "line2": "2 39781  86.3691 258.2585 0177289 275.4265 145.4796 14.20604550 80970"}}, "geometry": {"type": "Point", "coordinates": [-101.99159155884767, 9.61902402605382]}}, {"type": "Feature", "properties": {"norad_id": 39783, "name": "IRIDIUM 33 DEB", "group": "iridium-33-debris", "lat": 10.626704833697069, "lon": 73.80663468450409, "alt_km": 463.5808255895017, "timestamp": "2025-12-14T03:55:53.173347+00:00", "meta": {"OBJECT_NAME": "IRIDIUM 33 DEB", "OBJECT_ID": "1997-051AAQ", "EPOCH": "2025-11-16T15:05:40.850592", "MEAN_MOTION": 15.19327111, "ECCENTRICITY": 0.00057535, "INCLINATION": 86.1306, "RA_OF_ASC_NODE": 268.8004, "ARG_OF_PERICENTER": 179.9151, "MEAN_ANOMALY": 1.8316, "EPHEMERIS_TYPE": 0, "CLASSIFICATION_TYPE": "U", "NORAD_CAT_ID": 39783, "ELEMENT_SET_NO": 999, "REV_AT_EPOCH": 60401, "BSTAR": 0.010398125, "MEAN_MOTION_DOT": 0.00226179, "MEAN_MOTION_DDOT": 0}, "tle": {"line1": "1 39783U 97051AAQ 25320.62894503  .00226179  00000+0  10398-1 0  9999", "line2": "2 39783  86.1306 268.8004 0005753 179.9151   1.8316 15.19327111604018"}}, "geometry": {"type": "Point", "coordinates": [73.80663468450409, 10.626704833697069]}}, {"type": "Feature", "properties": {"norad_id": 40996, "name": "IRIDIUM 33 DEB", "group": "iridium-33-debris", "lat": -24.46277204879649, "lon": -177.59201541167764, "alt_km": 590.6957597750088, "timestamp": "2025-12-14T03:55:53.173356+00:00", "meta": {"OBJECT_NAME": "IRIDIUM 33 DEB", "OBJECT_ID": "1997-051ABJ", "EPOCH": "2025-12-12T07:45:11.152800", "MEAN_MOTION": 14.96217536, "ECCENTRICITY": 0.00119593, "INCLINATION": 86.3523, "RA_OF_ASC_NODE": 1.6046, "ARG_OF_PERICENTER": 64.2736, "MEAN_ANOMALY": 311.0223, "EPHEMERIS_TYPE": 0, "CLASSIFICATION_TYPE": "U", "NORAD_CAT_ID": 40996, "ELEMENT_SET_NO": 999, "REV_AT_EPOCH": 62482, "BSTAR": 0.0043106688, "MEAN_MOTION_DOT": 0.00048971, "MEAN_MOTION_DDOT": 0}, "tle": {"line1": "1 40996U 97051ABJ 25346.32304575  .00048971  00000+0  43107-2 0  9994", "line2": "2 40996  86.3523   1.6046 0011959  64.2736 311.0223 14.96217536624825"}}, "geometry": {"type": "Point", "coordinates": [-177.59201541167764, -24.46277204879649]}}, {"type": "Feature", "properties": {"norad_id": 40998, "name": "IRIDIUM 33 DEB", "group": "iridium-33-debris", "lat": 36.54370833721428, "lon": 55.73509807837928, "alt_km": 734.0586178273516, "timestamp": "2025-12-14T03:55:53.173366+00:00", "meta": {"OBJECT_NAME": "IRIDIUM 33 DEB", "OBJECT_ID": "1997-051ABL", "EPOCH": "2025-12-09T22:57:49.203072", "MEAN_MOTION": 14.45082428, "ECCENTRICITY": 0.00095723, "INCLINATION": 86.3826, "RA_OF_ASC_NODE": 54.8444, "ARG_OF_PERICENTER": 91.708, "MEAN_ANOMALY": 32.8835, "EPHEMERIS_TYPE": 0, "CLASSIFICATION_TYPE": "U", "NORAD_CAT_ID": 40998, "ELEMENT_SET_NO": 999, "REV_AT_EPOCH": 6641, "BSTAR": 0.00070534207, "MEAN_MOTION_DOT": 2.485e-05, "MEAN_MOTION_DDOT": 0}, "tle": {"line1": "1 40998U 97051ABL 25343.95681948  .00002485  00000+0  70534-3 0  9999", "line2": "2 40998  86.3826  54.8444 0009572  91.7080  32.8835 14.45082428 66416"}}, "geometry": {"type": "Point", "coordinates": [55.73509807837928, 36.54370833721428]}}, {"type": "Feature", "properties": {"norad_id": 46435, "name": "IRIDIUM 33 DEB", "group": "iridium-33-debris", "lat": -16.175332765418833, "lon": 14.416723007300735, "alt_km": 748.6350632504191, "timestamp": "2025-12-14T03:55:53.173377+00:00", "meta": {"OBJECT_NAME": "IRIDIUM 33 DEB", "OBJECT_ID": "1997-051ABN", "EPOCH": "2025-12-12T20:52:33.908160", "MEAN_MOTION": 14.32319865, "ECCENTRICITY": 0.02085953, "INCLINATION": 86.2838, "RA_OF_ASC_NODE": 193.8931, "ARG_OF_PERICENTER": 275.9535, "MEAN_ANOMALY": 94.2215, "EPHEMERIS_TYPE": 0, "CLASSIFICATION_TYPE": "U", "NORAD_CAT_ID": 46435, "ELEMENT_SET_NO": 999, "REV_AT_EPOCH": 7918, "BSTAR": 0.012063551, "MEAN_MOTION_DOT": 0.00041649, "MEAN_MOTION_DDOT": 0}, "tle": {"line1": "1 46435U 97051ABN 25346.86983690  .00041649  00000+0  12064-1 0  9990", "line2": "2 46435  86.2838 193.8931 0208595 275.9535  94.2215 14.32319865 79188"}}, "geometry": {"type": "Point", "coordinates": [14.416723007300735, -16.175332765418833]}}, {"type": "Feature", "properties": {"norad_id": 46734, "name": "IRIDIUM 33 DEB", "group": "iridium-33-debris", "lat": 79.05557711431015, "lon": 21.986833570024196, "alt_km": 753.6694146700993, "timestamp": "2025-12-14T03:55:53.173387+00:00", "meta": {"OBJECT_NAME": "IRIDIUM 33 DEB", "OBJECT_ID": "1997-051ABR", "EPOCH": "2025-12-13T07:39:56.344032", "MEAN_MOTION": 14.41895054, "ECCENTRICITY": 0.00384162, "INCLINATION": 86.2642, "RA_OF_ASC_NODE": 2.6096, "ARG_OF_PERICENTER": 333.7595, "MEAN_ANOMALY": 45.1508, "EPHEMERIS_TYPE": 0, "CLASSIFICATION_TYPE": "U", "NORAD_CAT_ID": 46734, "ELEMENT_SET_NO": 999, "REV_AT_EPOCH": 63019, "BSTAR": 0.001605315, "MEAN_MOTION_DOT": 5.319e-05, "MEAN_MOTION_DDOT": 0}, "tle": {"line1": "1 46734U 97051ABR 25347.31940213  .00005319  00000+0  16053-2 0  9994", "line2": "2 46734  86.2642   2.6096 0038416 333.7595  45.1508 14.41895054630197"}}, "geometry": {"type": "Point", "coordinates": [21.986833570024196, 79.05557711431015]}}, {"type": "Feature", "properties": {"norad_id": 46965, "name": "IRIDIUM 33 DEB", "group": "iridium-33-debris", "lat": -49.03982187881799, "lon": -24.167755332632492, "alt_km": 686.6706415075914, "timestamp": "2025-12-14T03:55:53.173397+00:00", "meta": {"OBJECT_NAME": "IRIDIUM 33 DEB", "OBJECT_ID": "1997-051ABX", "EPOCH": "2025-12-09T11:22:29.536608", "MEAN_MOTION": 14.60256222, "ECCENTRICITY": 0.0018504, "INCLINATION": 86.3353, "RA_OF_ASC_NODE": 342.1454, "ARG_OF_PERICENTER": 344.7825, "MEAN_ANOMALY": 167.4281, "EPHEMERIS_TYPE": 0, "CLASSIFICATION_TYPE": "U", "NORAD_CAT_ID": 46965, "ELEMENT_SET_NO": 999, "REV_AT_EPOCH": 62220, "BSTAR": 0.0013057124, "MEAN_MOTION_DOT": 6.336e-05, "MEAN_MOTION_DDOT": 0}, "tle": {"line1": "1 46965U 97051ABX 25343.47395297  .00006336  00000+0  13057-2 0  9990", "line2": "2 46965  86.3353 342.1454 0018504 344.7825 167.4281 14.60256222622205"}}, "geometry": {"type": "Point", "coordinates": [-24.167755332632492, -49.03982187881799]}}, {"type": "Feature", "properties": {"norad_id": 46971, "name": "IRIDIUM 33 DEB", "group": "iridium-33-debris", "lat": -44.1472982570682, "lon": 156.00835976426652, "alt_km": 579.788575160509, "timestamp": "2025-12-14T03:55:53.173407+00:00", "meta": {"OBJECT_NAME": "IRIDIUM 33 DEB", "OBJECT_ID": "1997-051ACD", "EPOCH": "2025-12-09T17:53:50.411040", "MEAN_MOTION": 14.9771662, "ECCENTRICITY": 0.00041979, "INCLINATION": 86.3387, "RA_OF_ASC_NODE": 334.5212, "ARG_OF_PERICENTER": 335.9126, "MEAN_ANOMALY": 199.6728, "EPHEMERIS_TYPE": 0, "CLASSIFICATION_TYPE": "U", "NORAD_CAT_ID": 46971, "ELEMENT_SET_NO": 999, "REV_AT_EPOCH": 64185, "BSTAR": 0.0038941985, "MEAN_MOTION_DOT": 0.00045901, "MEAN_MOTION_DDOT": 0}, "tle": {"line1": "1 46971U 97051ACD 25343.74572235  .00045901  00000+0  38942-2 0  9997", "line2": "2 46971  86.3387 334.5212 0004197 335.9126 199.6728 14.97716620641853"}}, "geometry": {"type": "Point", "coordinates": [156.00835976426652, -44.1472982570682]}}, {"type": "Feature", "properties": {"norad_id": 46974, "name": "IRIDIUM 33 DEB", "group": "iridium-33-debris", "lat": -53.91742806121534, "lon": 99.55692500350403, "alt_km": 788.2431195629051, "timestamp": "2025-12-14T03:55:53.173418+00:00", "meta": {"OBJECT_NAME": "IRIDIUM 33 DEB", "OBJECT_ID": "1997-051ACG", "EPOCH": "2025-12-13T01:34:59.316384", "MEAN_MOTION": 14.44392499, "ECCENTRICITY": 0.00956741, "INCLINATION": 86.2983, "RA_OF_ASC_NODE": 105.1329, "ARG_OF_PERICENTER": 185.9471, "MEAN_ANOMALY": 174.0604, "EPHEMERIS_TYPE": 0, "CLASSIFICATION_TYPE": "U", "NORAD_CAT_ID": 46974, "ELEMENT_SET_NO": 999, "REV_AT_EPOCH": 57513, "BSTAR": 0.0074669983, "MEAN_MOTION_DOT": 0.00027304, "MEAN_MOTION_DDOT": 0}, "tle": {"line1": "1 46974U 97051ACG 25347.06596431  .00027304  00000+0  74670-2 0  9998", "line2": "2 46974  86.2983 105.1329 0095674 185.9471 174.0604 14.44392499575137"}}, "geometry": {"type": "Point", "coordinates": [99.55692500350403, -53.91742806121534]}}]}